1 29108U 06016B   11154.14778438  .00000332  00000-0  83755-4 0  9997
2 29108 098.1955 097.3394 0001213 081.9574 278.1768 14.57104741271110
1 29108U 06016B   11153.80443521 +.00000334 +00000-0 +84077-4 0  9991
2 29108 098.1955 097.0015 0001221 081.6388 278.4963 14.57104450271067
1 29108U 06016B   11152.98039630  .00000356  00000-0  89044-4 0  9994
2 29108 098.1950 096.1901 0001234 081.4425 278.6921 14.57103889270947
1 29108U 06016B   11152.56837635 +.00000358 +00000-0 +89573-4 0  9998
2 29108 098.1950 095.7847 0001231 082.4436 277.6883 14.57103491270889
1 29108U 06016B   11151.81300738  .00000450  00000-0  10994-3 0  9997
2 29108 098.1949 095.0412 0001235 079.7721 280.3631 14.57103350270772
1 29108U 06016B   11150.78295766  .00000448  00000-0  10954-3 0  9999
2 29108 098.1947 094.0273 0001217 080.2316 279.9029 14.57102401270626
1 29108U 06016B   11149.54689768  .00000260  00000-0  67643-4 0  9990
2 29108 098.1944 092.8105 0001263 078.5680 281.5646 14.57100347270449
1 29108U 06016B   11148.86020025 +.00000188 +00000-0 +51685-4 0  9997
2 29108 098.1944 092.1350 0001242 079.5459 280.6054 14.57099802270341
1 29108U 06016B   11148.44818421 -.00000641  00000-0 -13240-3 0  9996
2 29108 098.1955 091.7296 0001547 072.6263 287.5401 14.57096382270287
1 29108U 06016B   11148.03616594 -.00003167  00000-0 -69366-3 0  9994
2 29108 098.1942 091.3241 0000989 096.7046 263.4598 14.57087192270227
1 29108U 06016B   11147.69281761 -.00004346  00000-0 -95581-3 0  9997
2 29108 098.1949 090.9862 0001422 071.4424 288.7260 14.57083872270172
1 29108U 06016B   11146.93744043 -.00006175 +00000-0 -13628-2 0  9993
2 29108 098.1944 090.2426 0001102 069.5005 290.6485 14.57082417270067
1 29108U 06016B   11146.93744043 -.00006175  00000-0 -13628-2 0  9993
2 29108 098.1944 090.2426 0001102 069.5005 290.6485 14.57082417270067
1 29108U 06016B   11145.83870264 -.00005176  00000-0 -11400-2 0  9992
2 29108 098.1949 089.1614 0001350 077.8090 282.2976 14.57098213269903
1 29108U 06016B   11145.42667566 -.00003778  00000-0 -82916-3 0  9993
2 29108 098.1951 088.7559 0001202 062.7652 297.3231 14.57108531269841
1 29108U 06016B   11145.01465071 -.00001847  00000-0 -39991-3 0  9995
2 29108 098.1951 088.3506 0001649 075.5141 284.5712 14.57121063269789
1 29108U 06016B   11144.67130486 -.00000262 +00000-0 -48028-4 0  9997
2 29108 098.1957 088.0127 0001203 075.0147 285.1047 14.57130973269731
1 29108U 06016B   11144.32796172  .00000149  00000-0  43157-4 0  9999
2 29108 098.1955 087.6749 0001253 078.3690 281.7620 14.57133568269684
1 29108U 06016B   11143.91595106 +.00000295 +00000-0 +75418-4 0  9994
2 29108 098.1954 087.2693 0001270 078.2886 281.8469 14.57134100269621
1 29108U 06016B   11143.16059747  .00000242  00000-0  63646-4 0  9999
2 29108 098.1955 086.5258 0001270 077.2238 282.9111 14.57133413269511
1 29108U 06016B   11142.81725501 +.00000223 +00000-0 +59405-4 0  9995
2 29108 098.1955 086.1880 0001264 077.7470 282.3883 14.57133085269463
1 29108U 06016B   11141.99323224  .00000222  00000-0  59295-4 0  9995
2 29108 098.1958 085.3773 0001267 078.5044 281.6306 14.57132679269344
1 29108U 06016B   11141.64988890 +.00000242 +00000-0 +63707-4 0  9998
2 29108 098.1958 085.0393 0001266 080.1272 280.0044 14.57132452269295
1 29108U 06016B   11140.89453482  .00000334  00000-0  84042-4 0  9995
2 29108 098.1953 084.2957 0001291 081.2797 278.8548 14.57132459269188
1 29108U 06016B   11139.79583723  .00000312  00000-0  79162-4 0  9997
2 29108 098.1950 083.2145 0001275 079.6589 280.4740 14.57131574269028
1 29108U 06016B   11138.62847070  .00000345  00000-0  86486-4 0  9999
2 29108 098.1947 082.0652 0001234 081.0582 279.0753 14.57130773268857
1 29108U 06016B   11137.87311587 +.00000274 +00000-0 +70859-4 0  9992
2 29108 098.1942 081.3217 0001218 080.4458 279.6900 14.57130029268740
1 29108U 06016B   11137.39243468  .00000204  00000-0  55211-4 0  9999
2 29108 098.1942 080.8487 0001232 080.4596 279.6732 14.57129389268674
1 29108U 06016B   11136.70574727 +.00000284 +00000-0 +73035-4 0  9990
2 29108 098.1937 080.1724 0001246 080.4008 279.7308 14.57129291268579
1 29108U 06016B   11136.36240399  .00000327  00000-0  82482-4 0  9991
2 29108 098.1937 079.8347 0001252 079.1023 281.0332 14.57129426268522
1 29108U 06016B   11135.88172314 +.00000346 +00000-0 +86736-4 0  9995
2 29108 098.1935 079.3614 0001248 077.4774 282.6578 14.57129013268454
1 29108U 06016B   11135.19503499  .00000434  00000-0  10641-3 0  9990
2 29108 098.1935 078.6853 0001266 076.9168 283.2167 14.57128995268350
1 29108U 06016B   11134.78302269 +.00000475 +00000-0 +11545-3 0  9995
2 29108 098.1934 078.2800 0001269 075.7134 284.4212 14.57128775268293
1 29108U 06016B   11134.02766656  .00000487  00000-0  11798-3 0  9999
2 29108 098.1933 077.5366 0001289 078.2834 281.8538 14.57128119268180
1 29108U 06016B   11133.68432217 +.00000439 +00000-0 +10742-3 0  9998
2 29108 098.1935 077.1987 0001302 078.5769 281.5557 14.57127368268131
1 29108U 06016B   11132.86029679 +.00000399 +00000-0 +98612-4 0  9999
2 29108 098.1940 076.3882 0001293 077.6265 282.5095 14.57126537268014
1 29108U 06016B   11132.86029679  .00000399  00000-0  98612-4 0  9999
2 29108 098.1940 076.3882 0001293 077.6265 282.5095 14.57126537268014
1 29108U 06016B   11131.76159438  .00000472  00000-0  11473-3 0  9995
2 29108 098.1942 075.3071 0001310 076.1894 283.9436 14.57125739267855
1 29108U 06016B   11130.52555414  .00000386  00000-0  95739-4 0  9994
2 29108 098.1945 074.0911 0001336 075.6743 284.4585 14.57124109267673
1 29108U 06016B   11129.77019535 +.00000461 +00000-0 +11238-3 0  9993
2 29108 098.1948 073.3482 0001298 076.6697 283.4642 14.57123822267569
1 29108U 06016B   11129.42685050  .00000482  00000-0  11704-3 0  9997
2 29108 098.1947 073.0104 0001322 075.8443 284.2906 14.57123628267515
1 29108U 06016B   11128.67149102 +.00000441 +00000-0 +10791-3 0  9996
2 29108 098.1948 072.2670 0001318 077.0366 283.0946 14.57122531267409
1 29108U 06016B   11128.25947687  .00000486  00000-0  11789-3 0  9991
2 29108 098.1946 071.8615 0001290 077.8036 282.3309 14.57122564267346
1 29108U 06016B   11127.91613167 +.00000531 +00000-0 +12789-3 0  9998
2 29108 098.1947 071.5238 0001295 076.2240 283.9103 14.57122335267299
1 29108U 06016B   11127.09210293  .00000549  00000-0  13183-3 0  9998
2 29108 098.1944 070.7126 0001291 077.0092 283.1259 14.57121481267175
1 29108U 06016B   11126.74875704 +.00000552 +00000-0 +13251-3 0  9993
2 29108 098.1946 070.3748 0001288 078.9067 281.2258 14.57120966267121
1 29108U 06016B   11125.85605848 +.00000607 +00000-0 +14473-3 0  9992
2 29108 098.1946 069.4964 0001279 080.0273 280.1076 14.57120225266991
1 29108U 06016B   11125.85605848  .00000607  00000-0  14473-3 0  9992
2 29108 098.1946 069.4964 0001279 080.0273 280.1076 14.57120225266991
1 29108U 06016B   11124.82602032  .00000673  00000-0  15938-3 0  9990
2 29108 098.1940 068.4822 0001291 079.1829 280.9491 14.57119080266847
1 29108U 06016B   11123.58997408  .00000708  00000-0  16705-3 0  9998
2 29108 098.1941 067.2658 0001285 078.4060 281.7256 14.57117293266666
1 29108U 06016B   11122.83461222 +.00000708 +00000-0 +16715-3 0  9996
2 29108 098.1936 066.5222 0001280 080.5490 279.5864 14.57116250266555
1 29108U 06016B   11122.49126553  .00000687  00000-0  16244-3 0  9996
2 29108 098.1936 066.1843 0001297 079.5088 280.6262 14.57115631266501
1 29108U 06016B   11121.73590244 +.00000558 +00000-0 +13388-3 0  9997
2 29108 098.1935 065.4411 0001303 078.3274 281.8065 14.57113986266397
1 29108U 06016B   11121.32388592  .00000487  00000-0  11800-3 0  9991
2 29108 098.1934 065.0357 0001285 081.8364 278.2995 14.57113300266335
1 29108U 06016B   11120.91186913 +.00000472 +00000-0 +11481-3 0  9997
2 29108 098.1932 064.6301 0001265 080.9900 279.1452 14.57112704266279
1 29108U 06016B   11120.15650427  .00000455  00000-0  11103-3 0  9991
2 29108 098.1931 063.8869 0001260 081.3742 278.7604 14.57111874266161
1 29108U 06016B   11119.81315670 +.00000458 +00000-0 +11174-3 0  9991
2 29108 098.1931 063.5492 0001254 080.4547 279.6803 14.57111520266110
1 29108U 06016B   11118.98912117 +.00000484 +00000-0 +11735-3 0  9999
2 29108 098.1930 062.7383 0001249 082.0327 278.0996 14.57110763265996
1 29108U 06016B   11118.98912118  .00000484  00000-0  11735-3 0  9990
2 29108 098.1930 062.7383 0001249 082.0327 278.0996 14.57110763265996
1 29108U 06016B   11117.95907745 +.00000509 +00000-0 +12300-3 0  9993
2 29108 098.1930 061.7252 0001241 081.0015 279.1337 14.57109787265844
1 29108U 06016B   11117.95907745  .00000509  00000-0  12300-3 0  9993
2 29108 098.1930 061.7252 0001241 081.0015 279.1337 14.57109787265844
1 29108U 06016B   11116.79169305  .00000448  00000-0  10954-3 0  9991
2 29108 098.1931 060.5767 0001246 080.7824 279.3523 14.57108309265671
1 29108U 06016B   11115.62430730  .00000497  00000-0  12026-3 0  9991
2 29108 098.1933 059.4283 0001281 079.7904 280.3421 14.57107205265504
1 29108U 06016B   11114.86894021 +.00000496 +00000-0 +12019-3 0  9994
2 29108 098.1934 058.6853 0001263 080.0661 280.0698 14.57106508265399
1 29108U 06016B   11114.45692108  .00000466  00000-0  11339-3 0  9992
2 29108 098.1937 058.2800 0001279 079.7230 280.4101 14.57105838265336
1 29108U 06016B   11113.77022600 +.00000311 +00000-0 +79063-4 0  9998
2 29108 098.1939 057.6048 0001292 082.3837 277.7666 14.57104612265236
1 29108U 06016B   11113.35820896 -.00000797  00000-0 -16689-3 0  9999
2 29108 098.1936 057.1991 0001430 079.8134 280.3412 14.57100463265172
1 29108U 06016B   11112.94619625 -.00002769  00000-0 -60502-3 0  9993
2 29108 098.1940 056.7935 0000655 085.3431 274.8365 14.57093891265115
1 29108U 06016B   11112.53417966 -.00004959  00000-0 -10920-2 0  9993
2 29108 098.1943 056.3881 0001521 076.8548 283.3258 14.57086657265052
1 29108U 06016B   11112.12215508 -.00006849  00000-0 -15128-2 0  9991
2 29108 098.1941 055.9828 0001041 074.0590 286.0835 14.57081207264999
